#aV2021  8  7  0  0  0.00000000     288 DD+AD WGS84 FIT  NGA
## 2169 518400.00000000   300.00000000 59433 0.0000000000000
+   32     1  2  3  4  5  6  7  8  9 10 11 12 13 14 15 16 17
+         18 19 20 21 22 23 24 25 26 27 28 29 30 31 32  0  0
+          0  0  0  0  0  0  0  0  0  0  0  0  0  0  0  0  0
+          0  0  0  0  0  0  0  0  0  0  0  0  0  0  0  0  0
+          0  0  0  0  0  0  0  0  0  0  0  0  0  0  0  0  0
++         2  2  2  2  2  2  2  2  2  2  2  2  2  2  2  2  2
++         2  2  2  2  2  2  2  2  2  2  2  2  2  2  2  0  0
++         0  0  0  0  0  0  0  0  0  0  0  0  0  0  0  0  0
++         0  0  0  0  0  0  0  0  0  0  0  0  0  0  0  0  0
++         0  0  0  0  0  0  0  0  0  0  0  0  0  0  0  0  0
%c cc cc ccc ccc cccc cccc cccc cccc ccccc ccccc ccccc ccccc
%c cc cc ccc ccc cccc cccc cccc cccc ccccc ccccc ccccc ccccc
%f  0.0000000  0.000000000  0.00000000000  0.000000000000000
%f  0.0000000  0.000000000  0.00000000000  0.000000000000000
%i    0    0    0    0      0      0      0      0         0
%i    0    0    0    0      0      0      0      0         0
/*      NGA, ST. LOUIS,MO.                                  
/*   EPHEMERIS COMPUTED FROM 2 DAYS OF DATA                 
/*   EPOCHA v6 SMOOTHER                                     
/*   G2139 IERS2010 SATIGS SATAPC                           
*  2021  8  7 21 40  0.00000000
P  1 -13980.404521  22258.273767   1901.170066    604.421874                    
V  1   -690.686418  -3562.806539  32385.030580     -0.113749                    
P  2  16887.768044  -4651.361604 -19336.038887   -624.861947                    
V  2  -9577.655566  24155.412758 -13653.619033     -0.024518                    
P  3 -16220.249486  12131.213190 -17224.444798   -246.285605                    
V  3 -21723.667365  -1143.828524  19869.973324     -0.131272                    
P  4  -5558.904792  17482.735004 -19178.361540   -203.627910                    
V  4 -13122.102245 -20599.989696 -15031.350145     -0.004600                    
P  5  24703.411036  -6612.973717   7325.078723    -50.395032                    
V  5   9618.645221   2095.170973 -29718.130783     -0.012270                    
P  6  11904.105481   8720.483127 -22022.537525     52.296795                    
V  6 -13707.291689  24459.549914   2326.378646      0.061995                    
P  7  -3454.356355  23455.750104  11816.115159    220.108557                    
V  7  -9678.242313  11370.138936 -26704.537072      0.081514                    
P  8 -13163.971751   7378.759259  21848.745243    -31.758584                    
V  8 -14871.503323 -23425.485652   -748.492426     -0.014774                    
P  9   4946.304409  23361.773878 -11668.545339   -358.146018                    
V  9 -10032.252020 -11101.336046 -26645.409895     -0.011349                    
P 10 -15895.969125 -11886.648082  17898.945159   -177.900997                    
V 10  22329.521031  -1801.916029  18486.419746     -0.076893                    
P 11  17658.276228  -2110.949057 -19741.523305     30.956673                    
V 11 -12306.412300  21838.541633 -13358.468831      0.059154                    
P 12  16994.324647 -10993.861669 -17378.322183    -79.699175                    
V 12  21497.663326   2597.255288  19793.059176     -0.053699                    
P 13  16307.569182   1586.862558  20797.000611    168.262578                    
V 13  10029.371921  24720.104089  -9544.657595      0.051428                    
P 14  15736.953027  12580.838052  17327.225176     28.989624                    
V 14 -22037.898546   1269.652854  19040.779532     -0.087023                    
P 15  12645.293904  -9323.944941  21041.216650   -129.983943                    
V 15  17153.812036  21781.520392   -300.590256      0.026761                    
P 16 -26704.183684   -413.365274   2105.378335   -369.984851                    
V 16  -2785.913267  -2253.288960 -31573.854933     -0.062357                    
P 17  12913.609000  23162.703304   -959.468887    485.905825                    
V 17  -1111.869191   2548.911438  32190.514401      0.057979                    
P 18   2327.392436 -22672.600975  13553.795668    334.789872                    
V 18  10428.117591 -13899.841308 -25095.676758     -0.033054                    
P 19  16422.345260  18255.426906 -10590.907653     36.656182                    
V 19   3928.916733  12470.986317  28191.232905      0.049566                    
P 20  25961.843088   -823.588489  -4859.523199    519.775591                    
V 20  -5500.455685   4618.743178 -30618.359322     -0.002035                    
P 21 -16592.479880  17540.262735  11136.616524    135.925660                    
V 21   3013.049430 -13241.567323  27562.989894      0.021613                    
P 22 -21710.667114  10577.581043 -10646.829203   -543.903098                    
V 22 -14201.449712  -1592.823068  27129.129559      0.094193                    
P 23  -3391.425319 -14886.759264  21713.620869     73.873880                    
V 23  27565.240351  -1551.822452   3176.659006     -0.051116                    
P 24  15022.536737 -20418.705804   6949.377200    201.334458                    
V 24   -392.197551  10041.783094  29686.287903      0.118707                    
P 25   5175.616995 -15127.916698 -21431.251386    187.249444                    
V 25  26657.768618     49.055053   6746.596575      0.065390                    
P 26 -24482.145839  -5184.627962  -9355.127161    119.980048                    
V 26  11526.979495  -3658.255922 -28038.603167      0.044497                    
P 27 -17722.702010  -3974.738418  19327.723951   -174.909483                    
V 27 -12028.115161 -21672.952173 -14989.290313     -0.056909                    
P 28  20229.982602  10865.222859  13725.868548    523.954745                    
V 28 -16672.782700    701.752126  25207.842935     -0.067897                    
P 29  -1706.998440 -22891.937605 -13352.822437   -392.668722                    
V 29   9172.671923  14247.234588 -25749.198308     -0.059250                    
P 30   6512.435445  17056.924768  19280.606405   -459.705705                    
V 30 -13743.149379  20347.426072 -13644.000309     -0.041967                    
P 31 -13813.918884  -6820.532933 -21733.055813   -133.023646                    
V 31  13870.587503 -23626.270281   -946.999528     -0.021034                    
P 32 -16118.438374 -20831.801437  -3971.757345      9.278491                    
V 32   -379.492133  -5830.169798  31042.154057     -0.025756                    
EOF
